{
    "links": {
        "self": "http://www.neowsapp.com/rest/v1/neo/3092249?api_key=iIulBulltgU6a56xZRHN4H3l9WmuAYTsLGpBGhQ2"
    },
    "id": "3092249",
    "neo_reference_id": "3092249",
    "name": "(2000 BO19)",
    "designation": "2000 BO19",
    "nasa_jpl_url": "http://ssd.jpl.nasa.gov/sbdb.cgi?sstr=3092249",
    "absolute_magnitude_h": 24.6,
    "estimated_diameter": {
        "kilometers": {
            "estimated_diameter_min": 0.0319561887,
            "estimated_diameter_max": 0.0714562102
        },
        "meters": {
            "estimated_diameter_min": 31.9561886721,
            "estimated_diameter_max": 71.4562101727
        },
        "miles": {
            "estimated_diameter_min": 0.0198566489,
            "estimated_diameter_max": 0.0444008168
        },
        "feet": {
            "estimated_diameter_min": 104.8431420431,
            "estimated_diameter_max": 234.436392583
        }
    },
    "is_potentially_hazardous_asteroid": false,
    "close_approach_data": [
        {
            "close_approach_date": "1930-08-15",
            "close_approach_date_full": "1930-Aug-15 00:43",
            "epoch_date_close_approach": -1242775020000,
            "relative_velocity": {
                "kilometers_per_second": "20.7353047218",
                "kilometers_per_hour": "74647.0969983356",
                "miles_per_hour": "46382.8031321047"
            },
            "miss_distance": {
                "astronomical": "0.2470143564",
                "lunar": "96.0885846396",
                "kilometers": "36952821.576860868",
                "miles": "22961418.5927332584"
            },
            "orbiting_body": "Earth"
        },
        {
            "close_approach_date": "1975-01-31",
            "close_approach_date_full": "1975-Jan-31 09:34",
            "epoch_date_close_approach": 160392840000,
            "relative_velocity": {
                "kilometers_per_second": "16.9709742967",
                "kilometers_per_hour": "61095.5074682233",
                "miles_per_hour": "37962.3724043524"
            },
            "miss_distance": {
                "astronomical": "0.1017227869",
                "lunar": "39.5701641041",
                "kilometers": "15217512.250703903",
                "miles": "9455723.6448557414"
            },
            "orbiting_body": "Earth"
        },
        {
            "close_approach_date": "1979-01-18",
            "close_approach_date_full": "1979-Jan-18 12:20",
            "epoch_date_close_approach": 285510000000,
            "relative_velocity": {
                "kilometers_per_second": "25.3878352709",
                "kilometers_per_hour": "91396.206975245",
                "miles_per_hour": "56790.0487174793"
            },
            "miss_distance": {
                "astronomical": "0.4021466192",
                "lunar": "156.4350348688",
                "kilometers": "60160277.660021104",
                "miles": "37381863.1179110752"
            },
            "orbiting_body": "Earth"
        },
        {
            "close_approach_date": "2000-02-04",
            "close_approach_date_full": "2000-Feb-04 13:09",
            "epoch_date_close_approach": 949669740000,
            "relative_velocity": {
                "kilometers_per_second": "14.5610375022",
                "kilometers_per_hour": "52419.7350077447",
                "miles_per_hour": "32571.5847885622"
            },
            "miss_distance": {
                "astronomical": "0.0312034614",
                "lunar": "12.1381464846",
                "kilometers": "4667971.362067218",
                "miles": "2900542.9044268884"
            },
            "orbiting_body": "Earth"
        },
        {
            "close_approach_date": "2004-01-21",
            "close_approach_date_full": "2004-Jan-21 19:57",
            "epoch_date_close_approach": 1074715020000,
            "relative_velocity": {
                "kilometers_per_second": "23.3756320548",
                "kilometers_per_hour": "84152.2753973149",
                "miles_per_hour": "52288.9513434038"
            },
            "miss_distance": {
                "astronomical": "0.3322356419",
                "lunar": "129.2396646991",
                "kilometers": "49701744.366322753",
                "miles": "30883231.8747418714"
            },
            "orbiting_body": "Earth"
        }
    ],
    "orbital_data": {
        "orbit_id": "11",
        "orbit_determination_date": "2017-04-06 09:17:09",
        "first_observation_date": "2000-01-30",
        "last_observation_date": "2000-02-03",
        "data_arc_in_days": 4,
        "observations_used": 10,
        "orbit_uncertainty": "8",
        "minimum_orbit_intersection": ".00438155",
        "jupiter_tisserand_invariant": "5.181",
        "epoch_osculation": "2451575.5",
        "eccentricity": ".384694253047463",
        "semi_major_axis": "1.20103743215462",
        "inclination": "16.86160490362548",
        "ascending_node_longitude": "310.2495259396828",
        "orbital_period": "480.7654408437149",
        "perihelion_distance": ".7390052343098554",
        "perihelion_argument": "272.1759131360038",
        "aphelion_distance": "1.663069629999385",
        "perihelion_time": "2451638.926134866794",
        "mean_anomaly": "312.5061358154726",
        "mean_motion": ".7488059028706833",
        "equinox": "J2000",
        "orbit_class": {
            "orbit_class_type": "APO",
            "orbit_class_description": "Near-Earth asteroid orbits which cross the Earth’s orbit similar to that of 1862 Apollo",
            "orbit_class_range": "a (semi-major axis) > 1.0 AU; q (perihelion) < 1.017 AU"
        }
    },
    "is_sentry_object": false
}